{
    "links": {
        "self": "http://www.neowsapp.com/rest/v1/neo/3751821?api_key=iIulBulltgU6a56xZRHN4H3l9WmuAYTsLGpBGhQ2"
    },
    "id": "3751821",
    "neo_reference_id": "3751821",
    "name": "(2016 GR220)",
    "designation": "2016 GR220",
    "nasa_jpl_url": "http://ssd.jpl.nasa.gov/sbdb.cgi?sstr=3751821",
    "absolute_magnitude_h": 24.2,
    "estimated_diameter": {
        "kilometers": {
            "estimated_diameter_min": 0.0384197891,
            "estimated_diameter_max": 0.0859092601
        },
        "meters": {
            "estimated_diameter_min": 38.4197891064,
            "estimated_diameter_max": 85.9092601232
        },
        "miles": {
            "estimated_diameter_min": 0.0238729428,
            "estimated_diameter_max": 0.0533815229
        },
        "feet": {
            "estimated_diameter_min": 126.0491808919,
            "estimated_diameter_max": 281.8545369825
        }
    },
    "is_potentially_hazardous_asteroid": false,
    "close_approach_data": [
        {
            "close_approach_date": "2012-11-02",
            "close_approach_date_full": "2012-Nov-02 01:19",
            "epoch_date_close_approach": 1351819140000,
            "relative_velocity": {
                "kilometers_per_second": "12.7400980957",
                "kilometers_per_hour": "45864.3531446435",
                "miles_per_hour": "28498.3254303481"
            },
            "miss_distance": {
                "astronomical": "0.0832833081",
                "lunar": "32.3972068509",
                "kilometers": "12459005.498313747",
                "miles": "7741667.0307818286"
            },
            "orbiting_body": "Mars"
        },
        {
            "close_approach_date": "2016-04-27",
            "close_approach_date_full": "2016-Apr-27 02:44",
            "epoch_date_close_approach": 1461725040000,
            "relative_velocity": {
                "kilometers_per_second": "5.6358990558",
                "kilometers_per_hour": "20289.2366009102",
                "miles_per_hour": "12606.9425979378"
            },
            "miss_distance": {
                "astronomical": "0.1117807098",
                "lunar": "43.4826961122",
                "kilometers": "16722156.093168126",
                "miles": "10390665.9747110988"
            },
            "orbiting_body": "Earth"
        },
        {
            "close_approach_date": "2142-06-10",
            "close_approach_date_full": "2142-Jun-10 13:53",
            "epoch_date_close_approach": 5441694780000,
            "relative_velocity": {
                "kilometers_per_second": "15.3130895101",
                "kilometers_per_hour": "55127.1222362934",
                "miles_per_hour": "34253.8499251013"
            },
            "miss_distance": {
                "astronomical": "0.3770407479",
                "lunar": "146.6688509331",
                "kilometers": "56404492.789046973",
                "miles": "35048126.6158873074"
            },
            "orbiting_body": "Earth"
        },
        {
            "close_approach_date": "2160-07-27",
            "close_approach_date_full": "2160-Jul-27 18:27",
            "epoch_date_close_approach": 6013852020000,
            "relative_velocity": {
                "kilometers_per_second": "12.8526741273",
                "kilometers_per_hour": "46269.6268581302",
                "miles_per_hour": "28750.1467552643"
            },
            "miss_distance": {
                "astronomical": "0.0554696286",
                "lunar": "21.5776855254",
                "kilometers": "8298138.288251082",
                "miles": "5156224.0350336516"
            },
            "orbiting_body": "Mars"
        }
    ],
    "orbital_data": {
        "orbit_id": "9",
        "orbit_determination_date": "2017-04-06 08:26:34",
        "first_observation_date": "2016-04-11",
        "last_observation_date": "2016-05-19",
        "data_arc_in_days": 38,
        "observations_used": 23,
        "orbit_uncertainty": "6",
        "minimum_orbit_intersection": ".111692",
        "jupiter_tisserand_invariant": "3.316",
        "epoch_osculation": "2459000.5",
        "eccentricity": ".5388373520121548",
        "semi_major_axis": "2.391458892867279",
        "inclination": "3.12597828533219",
        "ascending_node_longitude": "133.3482760069533",
        "orbital_period": "1350.805458919683",
        "perihelion_distance": "1.102851515588755",
        "perihelion_argument": "83.25808512738401",
        "aphelion_distance": "3.680066270145804",
        "perihelion_time": "2458856.160584309810",
        "mean_anomaly": "38.46755971065254",
        "mean_motion": ".2665076585401962",
        "equinox": "J2000",
        "orbit_class": {
            "orbit_class_type": "AMO",
            "orbit_class_description": "Near-Earth asteroid orbits similar to that of 1221 Amor",
            "orbit_class_range": "1.017 AU < q (perihelion) < 1.3 AU"
        }
    },
    "is_sentry_object": false
}